OBJECT_NAME,OBJECT_ID,EPOCH,MEAN_MOTION,ECCENTRICITY,INCLINATION,RA_OF_ASC_NODE,ARG_OF_PERICENTER,MEAN_ANOMALY,EPHEMERIS_TYPE,CLASSIFICATION_TYPE,NORAD_CAT_ID,ELEMENT_SET_NO,REV_AT_EPOCH,BSTAR,MEAN_MOTION_DOT,MEAN_MOTION_DDOT
KUIPER-00592,2026-118L,2026-06-18T22:36:08.869248,15.38129334,.000358,51.8708,44.6927,141.2123,218.9122,0,U,69277,999,425,.35177469E-3,.13043E-3,0
KUIPER-00593,2026-118M,2026-06-18T22:37:14.942784,15.38086233,.00037755,51.8713,44.6971,161.5847,198.5277,0,U,69278,999,431,.33766327E-3,.12486E-3,0
KUIPER-00594,2026-118N,2026-06-18T22:24:35.171424,15.38702402,.00009179,51.8722,44.6393,86.4537,273.6555,0,U,69279,999,425,.55029212E-3,.21042E-3,0
KUIPER-00595,2026-118P,2026-06-18T22:27:58.239072,15.38537044,.00013489,51.8714,44.6564,148.9733,211.1334,0,U,69280,999,428,.53786401E-3,.20444E-3,0
KUIPER-00596,2026-118Q,2026-06-18T21:51:12.353760,15.34743103,.00125208,51.8565,45.2066,191.1150,168.9561,0,U,69281,999,424,.40668679E-3,.13578E-3,0
KUIPER-00597,2026-118R,2026-06-18T22:54:17.036640,15.37063203,.00070188,51.8651,44.7703,177.8559,182.2458,0,U,69282,999,425,.29435687E-3,.10473E-3,0
KUIPER-00599,2026-118S,2026-06-18T22:49:33.942720,15.37354675,.00059068,51.8690,44.7530,172.1952,187.9128,0,U,69283,999,425,.29009409E-3,.10414E-3,0
KUIPER-00600,2026-118T,2026-06-18T21:27:15.684192,15.36710780,.00087227,51.8648,45.1129,179.4015,180.6983,0,U,69284,999,424,.2654123E-3,.9296E-4,0
KUIPER-00601,2026-118U,2026-06-18T22:44:05.448192,15.37692381,.00046122,51.8704,44.7284,160.6350,199.4813,0,U,69285,999,425,.32603101E-3,.11885E-3,0
KUIPER-00602,2026-118V,2026-06-18T22:34:45.357600,15.38217207,.00028348,51.8702,44.6872,153.6243,206.4889,0,U,69286,999,425,.3349017E-3,.12434E-3,0
KUIPER-00603,2026-118W,2026-06-18T22:46:04.989504,15.37616550,.00054787,51.8673,44.7360,167.3277,192.7848,0,U,69287,999,425,.44975435E-3,.16516E-3,0
KUIPER-00605,2026-118X,2026-06-18T22:55:11.936928,15.37081862,.00074467,51.8662,44.7759,173.6105,186.4978,0,U,69288,999,425,.3308531E-3,.1183E-3,0
KUIPER-00606,2026-118Y,2026-06-18T22:42:10.926720,15.37724794,.00046482,51.8695,44.7200,160.6353,199.4812,0,U,69289,999,425,.33381873E-3,.12192E-3,0
KUIPER-00607,2026-118Z,2026-06-18T22:47:59.686368,15.37477462,.00060642,51.8680,44.7455,168.0857,192.0275,0,U,69290,999,425,.33333701E-3,.12077E-3,0
KUIPER-00608,2026-118AA,2026-06-18T21:41:39.850944,15.35242555,.00084113,51.8614,45.1724,181.9953,178.1001,0,U,69291,999,424,.4336137E-3,.14724E-3,0
KUIPER-00610,2026-118AB,2026-06-18T22:31:38.595360,15.38223229,.00021265,51.8722,44.6706,154.6851,205.4241,0,U,69292,999,425,.37928359E-3,.1414E-3,0
KUIPER-00613,2026-118AC,2026-06-18T21:49:11.313408,15.34528762,.00101476,51.8641,45.2097,188.8781,171.2027,0,U,69293,999,424,.11292436E-3,.3458E-4,0
KUIPER-00618,2026-118AD,2026-06-18T22:25:19.481664,15.38689725,.00016537,51.8724,44.6409,96.5943,263.5232,0,U,69294,999,425,.55928581E-3,.21385E-3,0
KUIPER-00620,2026-118AE,2026-06-18T22:30:42.806880,15.38351623,.00026621,51.8719,44.6670,127.4922,232.6308,0,U,69295,999,425,.52656897E-3,.19883E-3,0
STARLINK-37501,2026-119A,2026-06-18T22:00:01.999584,15.55341277,.0001651,97.2851,195.7612,63.8849,47.7212,0,U,69296,999,416,-.39481774E-1,-.2348256E-1,0
STARLINK-37496,2026-119B,2026-06-18T22:00:01.999584,15.57244643,.00015028,97.2855,195.7599,68.7326,37.1517,0,U,69297,999,416,-.37948353E-1,-.2413416E-1,0
STARLINK-37519,2026-119C,2026-06-18T22:00:01.999584,15.54836026,.00019274,97.2857,195.7686,59.5299,69.7765,0,U,69298,999,416,-.3792689E-1,-.2230034E-1,0
STARLINK-37455,2026-119D,2026-06-18T22:00:01.999584,15.49152377,.00016479,97.2857,195.6807,84.5347,203.7614,0,U,69299,999,416,.15628385E-2,.8573E-3,0
STARLINK-37456,2026-119E,2026-06-18T22:00:01.999584,15.53184433,.00006316,97.2852,195.7620,19.6433,101.3739,0,U,69300,999,416,-.43476908E-1,-.2382987E-1,0
STARLINK-37630,2026-119F,2026-06-18T22:00:01.999584,15.49143896,.00007509,97.2847,195.6011,90.5434,15.3858,0,U,69301,999,432,.14611632E-2,.80063E-3,0
STARLINK-37804,2026-119G,2026-06-18T22:00:01.999584,15.49143293,.00012498,97.2847,195.5980,91.2092,7.6644,0,U,69302,999,432,.14456326E-2,.79202E-3,0
STARLINK-37730,2026-119H,2026-06-18T22:00:01.999584,15.60601862,.00016218,97.2857,195.8196,78.6806,172.6287,0,U,69303,999,432,-.10874688E-1,-.823996E-2,0
STARLINK-37731,2026-119J,2026-06-18T22:00:01.999584,15.49142989,.00009614,97.2851,195.5959,80.3237,12.5465,0,U,69304,999,432,.15978083E-2,.87641E-3,0
STARLINK-37734,2026-119K,2026-06-18T22:00:01.999584,15.53609859,.00010539,97.2853,195.7596,339.9583,140.3315,0,U,69305,999,432,-.52788512E-1,-.2920974E-1,0
STARLINK-37701,2026-119L,2026-06-18T22:00:01.999584,15.59032252,.0001829,97.2849,195.8137,84.3951,152.8929,0,U,69306,999,432,-.36397473E-1,-.2468863E-1,0
