KUIPER-00592            
1 69277U 26118L   26169.94176932  .00013043  00000+0  35177-3 0  9990
2 69277  51.8708  44.6927 0003580 141.2123 218.9122 15.38129334  4259
KUIPER-00593            
1 69278U 26118M   26169.94253406  .00012486  00000+0  33766-3 0  9995
2 69278  51.8713  44.6971 0003775 161.5847 198.5277 15.38086233  4310
KUIPER-00594            
1 69279U 26118N   26169.93374041  .00021042  00000+0  55029-3 0  9998
2 69279  51.8722  44.6393 0000917  86.4537 273.6555 15.38702402  4255
KUIPER-00595            
1 69280U 26118P   26169.93609073  .00020444  00000+0  53786-3 0  9999
2 69280  51.8714  44.6564 0001348 148.9733 211.1334 15.38537044  4282
KUIPER-00596            
1 69281U 26118Q   26169.91055965  .00013578  00000+0  40669-3 0  9999
2 69281  51.8565  45.2066 0012520 191.1150 168.9561 15.34743103  4246
KUIPER-00597            
1 69282U 26118R   26169.95436385  .00010473  00000+0  29436-3 0  9993
2 69282  51.8651  44.7703 0007018 177.8559 182.2458 15.37063203  4259
KUIPER-00599            
1 69283U 26118S   26169.95108730  .00010414  00000+0  29009-3 0  9995
2 69283  51.8690  44.7530 0005906 172.1952 187.9128 15.37354675  4252
KUIPER-00600            
1 69284U 26118T   26169.89393153  .00009296  00000+0  26541-3 0  9998
2 69284  51.8648  45.1129 0008722 179.4015 180.6983 15.36710780  4244
KUIPER-00601            
1 69285U 26118U   26169.94728528  .00011885  00000+0  32603-3 0  9996
2 69285  51.8704  44.7284 0004612 160.6350 199.4813 15.37692381  4251
KUIPER-00602            
1 69286U 26118V   26169.94080275  .00012434  00000+0  33490-3 0  9993
2 69286  51.8702  44.6872 0002834 153.6243 206.4889 15.38217207  4252
KUIPER-00603            
1 69287U 26118W   26169.94866886  .00016516  00000+0  44975-3 0  9999
2 69287  51.8673  44.7360 0005478 167.3277 192.7848 15.37616550  4254
KUIPER-00605            
1 69288U 26118X   26169.95499927  .00011830  00000+0  33085-3 0  9993
2 69288  51.8662  44.7759 0007446 173.6105 186.4978 15.37081862  4258
KUIPER-00606            
1 69289U 26118Y   26169.94595980  .00012192  00000+0  33382-3 0  9991
2 69289  51.8695  44.7200 0004648 160.6353 199.4812 15.37724794  4257
KUIPER-00607            
1 69290U 26118Z   26169.94999637  .00012077  00000+0  33334-3 0  9999
2 69290  51.8680  44.7455 0006064 168.0857 192.0275 15.37477462  4259
KUIPER-00608            
1 69291U 26118AA  26169.90393346  .00014724  00000+0  43361-3 0  9993
2 69291  51.8614  45.1724 0008411 181.9953 178.1001 15.35242555  4242
KUIPER-00610            
1 69292U 26118AB  26169.93864115  .00014140  00000+0  37928-3 0  9998
2 69292  51.8722  44.6706 0002126 154.6851 205.4241 15.38223229  4259
KUIPER-00613            
1 69293U 26118AC  26169.90915872  .00003458  00000+0  11292-3 0  9999
2 69293  51.8641  45.2097 0010147 188.8781 171.2027 15.34528762  4240
KUIPER-00618            
1 69294U 26118AD  26169.93425326  .00021385  00000+0  55929-3 0  9997
2 69294  51.8724  44.6409 0001653  96.5943 263.5232 15.38689725  4255
KUIPER-00620            
1 69295U 26118AE  26169.93799545  .00019883  00000+0  52657-3 0  9990
2 69295  51.8719  44.6670 0002662 127.4922 232.6308 15.38351623  4256
STARLINK-37501          
1 69296U 26119A   26169.91668981 -.02348256  00000+0 -39482-1 0  9991
2 69296  97.2851 195.7612 0001651  63.8849  47.7212 15.55341277  4162
STARLINK-37496          
1 69297U 26119B   26169.91668981 -.02413416  00000+0 -37948-1 0  9998
2 69297  97.2855 195.7599 0001502  68.7326  37.1517 15.57244643  4162
STARLINK-37519          
1 69298U 26119C   26169.91668981 -.02230034  00000+0 -37927-1 0  9999
2 69298  97.2857 195.7686 0001927  59.5299  69.7765 15.54836026  4165
STARLINK-37455          
1 69299U 26119D   26169.91668981  .00085730  00000+0  15628-2 0  9992
2 69299  97.2857 195.6807 0001647  84.5347 203.7614 15.49152377  4168
STARLINK-37456          
1 69300U 26119E   26169.91668981 -.02382987  00000+0 -43477-1 0  9995
2 69300  97.2852 195.7620 0000631  19.6433 101.3739 15.53184433  4161
STARLINK-37630          
1 69301U 26119F   26169.91668981  .00080063  00000+0  14612-2 0  9992
2 69301  97.2847 195.6011 0000750  90.5434  15.3858 15.49143896  4327
STARLINK-37804          
1 69302U 26119G   26169.91668981  .00079202  00000+0  14456-2 0  9992
2 69302  97.2847 195.5980 0001249  91.2092   7.6644 15.49143293  4322
STARLINK-37730          
1 69303U 26119H   26169.91668981 -.00823996  00000+0 -10875-1 0  9992
2 69303  97.2857 195.8196 0001621  78.6806 172.6287 15.60601862  4322
STARLINK-37731          
1 69304U 26119J   26169.91668981  .00087641  00000+0  15978-2 0  9990
2 69304  97.2851 195.5959 0000961  80.3237  12.5465 15.49142989  4322
STARLINK-37734          
1 69305U 26119K   26169.91668981 -.02920974  00000+0 -52789-1 0  9990
2 69305  97.2853 195.7596 0001053 339.9583 140.3315 15.53609859  4327
STARLINK-37701          
1 69306U 26119L   26169.91668981 -.02468863  00000+0 -36397-1 0  9992
2 69306  97.2849 195.8137 0001829  84.3951 152.8929 15.59032252  4328
